CSS (TIANHE)            
1 48274U 21035A   24235.73620970  .00058304  00000+0  65979-3 0  9994
2 48274  41.4691  37.5647 0002988 285.7657  74.2852 15.61530858189504
